{
  "type": "FeatureCollection",
  "name": "Theyyam Calendar Project",
  "generated_at": "2026-10-05T18:48:18.001Z",
  "features": [
    {
      "type": "Feature",
      "geometry": {
        "type": "Point",
        "coordinates": [
          75.69603850000003,
          11.632209800000004
        ]
      },
      "properties": {
        "name_en": "Sree Umiyamkunnummal Paradevatha Kuttichathan Kshetram, Vadakara",
        "name_ml": "ശ്രീ ഉമിയംകുന്നുംമൽ പരദേവത കുട്ടിച്ചാത്തൻ ക്ഷേത്രം, വടകര",
        "other_names": [
          "Umiyamkunnummal Paradevatha Kuttichathan Kshetram"
        ],
        "wikidata": "Q141648256",
        "coordinates": {
          "lat": 11.632209800000004,
          "lon": 75.69603850000003
        },
        "place": "Kakkuni",
        "note": null,
        "image": null,
        "calendar": [
          {
            "date": "2026-10-22",
            "entries": [
              {
                "time": "18:30",
                "theyyam": "പരദേവത",
                "ritual_type": "Vellattam (വെള്ളാട്ടം)",
                "wikidata": null
              },
              {
                "time": "19:30",
                "theyyam": "കുട്ടിച്ചാത്തൻ",
                "ritual_type": "Vellattam (വെള്ളാട്ടം)",
                "wikidata": null
              }
            ]
          },
          {
            "date": "2026-10-23",
            "entries": [
              {
                "time": "20:00",
                "theyyam": "പരദേവത",
                "ritual_type": "Vellattam (വെള്ളാട്ടം)",
                "wikidata": null
              },
              {
                "time": "21:30",
                "theyyam": "കുട്ടിച്ചാത്തൻ",
                "ritual_type": "Vellattam (വെള്ളാട്ടം)",
                "wikidata": null
              }
            ]
          },
          {
            "date": "2026-10-24",
            "entries": [
              {
                "time": "18:30",
                "theyyam": "പരദേവത",
                "ritual_type": "Vellattam (വെള്ളാട്ടം)",
                "wikidata": null
              },
              {
                "time": "21:00",
                "theyyam": "കുട്ടിച്ചാത്തൻ",
                "ritual_type": "Vellattam (വെള്ളാട്ടം)",
                "wikidata": null
              },
              {
                "time": "23:30",
                "theyyam": "ഗുളികൻ",
                "ritual_type": "Vellattam (വെള്ളാട്ടം)",
                "wikidata": null
              }
            ]
          },
          {
            "date": "2026-10-25",
            "entries": [
              {
                "time": "01:00",
                "theyyam": "ചാമുണ്ഡി",
                "ritual_type": "Vellattam (വെള്ളാട്ടം)",
                "wikidata": null
              },
              {
                "time": "07:00",
                "theyyam": "ഗുളികൻ",
                "ritual_type": "തിറ",
                "wikidata": null
              },
              {
                "time": "09:00",
                "theyyam": "പരദേവത",
                "ritual_type": "തിറ",
                "wikidata": null
              },
              {
                "time": "12:00",
                "theyyam": "കുട്ടിച്ചാത്തൻ",
                "ritual_type": "തിറ",
                "wikidata": null
              }
            ]
          }
        ],
        "submitted_at": "2026-10-05T18:47:51.021Z",
        "id": "Q141648256"
      }
    }
  ]
}